0 LRE
1 26898U 01038A   13282.08692542  .00003099  00000-0  45132-3 0  3765
2 26898 028.2937 237.2299 7184700 027.7500 003.5197 02.41764519103635
0 LRE
1 26898U 01038A   13284.16398027  .00003116  00000-0  42293-3 0  3773
2 26898 028.2854 236.4007 7185110 029.0933 011.3345 02.41776306103686
0 LRE
1 26898U 01038A   13286.22738027  .00003296  00000-0  42895-3 0  3788
2 26898 028.2768 235.5763 7185519 030.4281 007.3482 02.41786490103732
0 LRE
1 26898U 01038A   13289.11964362  .00003190  00000-0  42042-3 0  3790
2 26898 028.2642 234.4192 7185889 032.2998 004.9643 02.41804968103803
0 LRE
1 26898U 01038A   13290.34992759  .00003726  00000-0  46856-3 0  3813
2 26898 028.2722 233.9351 7186666 033.0904 355.9504 02.41813789103821
0 LRE
1 26898U 01038A   13292.01443726  .00003478  00000-0  46198-3 0  3806
2 26898 028.2529 233.2603 7186510 034.1706 004.9714 02.41822301103878
0 LRE
1 26898U 01038A   13294.08070345  .00003795  00000-0  48653-3 0  3819
2 26898 028.2449 232.4314 7187054 035.5094 003.8402 02.41837105103924
